satname,norad_id,inclination_deg,eccentricity,mean_motion_rev_per_day,perigee_km,apogee_km,l1,l2
STARLINK-1573,46061,53.16,0.0001723,15.31710298,469.5292413784273,471.8893538125785,1 46061U 20055AL  26185.59448523  .00005031  00000+0  17374-3 0  9994,2 46061  53.1600 289.9709 0001723  87.7227 272.3972 15.31710298326981
STARLINK-1577,46063,53.1615,7.43e-05,15.3174131,470.10799262139153,471.12571744424986,1 46063U 20055AN  26185.55719549  .00019434  00000+0  63557-3 0  9997,2 46063  53.1615 290.1420 0000743  91.7427 268.3660 15.31741310326978
STARLINK-1583,46064,53.1592,9.12e-05,15.31722909,470.0470941859394,471.2963168938286,1 46064U 20055AP  26185.57124967  .00009534  00000+0  31838-3 0  9991,2 46064  53.1592 290.5794 0000912  95.2596 264.8509 15.31722909326960
STARLINK-1536,46070,53.1589,5.17e-05,15.31645712,470.54773440115514,471.25592501614756,1 46070U 20055AV  26185.24632619  .00028548  00000+0  92977-3 0  9997,2 46070  53.1589 279.4753 0000517 164.7929 195.3088 15.31645712327098
STARLINK-1542,46073,53.159,9.64e-05,15.31718936,470.0233222756433,471.3437748774095,1 46073U 20055AY  26185.53165988  .00009602  00000+0  32060-3 0  9999,2 46073  53.1590 281.1171 0000964  92.3789 267.7323 15.31718936327087
STARLINK-1549,46074,53.0482,0.000115,15.33947729,463.2609639486109,464.8346664561077,1 46074U 20055AZ  26185.55562739  .00109711  00000+0  32571-2 0  9995,2 46074  53.0482 277.8430 0001150  30.3677 329.7390 15.33947729327116
STARLINK-1551,46075,53.1586,0.0001236,15.31706158,469.8751196818512,471.5681575373155,1 46075U 20055BA  26185.62880736  .00006564  00000+0  22304-3 0  9990,2 46075  53.1586 277.6337 0001236  89.9678 270.1466 15.31706158327146
STARLINK-1552,46076,53.1591,0.0001083,15.31733567,469.89821303053577,471.3816581147803,1 46076U 20055BB  26185.54950302  .00003729  00000+0  13175-3 0  9995,2 46076  53.1591 277.5864 0001083  96.4668 263.6456 15.31733567327127
STARLINK-1559,46077,53.0209,0.0003804,15.41005261,440.54635696243986,445.73598539507293,1 46077U 20055BC  26185.53864988  .00108494  00000+0  25634-2 0  9996,2 46077  53.0209 245.2240 0003804   4.2713 355.8322 15.41005261327539
STARLINK-1566,46079,53.1618,0.0001555,15.31716783,469.62497383949267,471.75495902605326,1 46079U 20055BE  26185.55415117  .00003080  00000+0  11093-3 0  9996,2 46079  53.1618 277.4205 0001555 107.4846 252.6326 15.31716783327140
STARLINK-1568,46080,53.0559,0.0003125,15.56563144,395.4951439305114,399.72998740905496,1 46080U 20055BF  26185.28730847  .00059560  00000+0  82416-3 0  9999,2 46080  53.0559 192.3960 0003125  79.7374 280.3989 15.56563144328298
STARLINK-1578,46082,53.1607,0.0001325,15.31714901,469.7881061637527,471.6030467965202,1 46082U 20055BH  26185.55854282  .00003699  00000+0  13085-3 0  9999,2 46082  53.1607 277.9156 0001325  83.5115 276.6038 15.31714901327135
STARLINK-1579,46083,53.1575,8.11e-05,15.31720106,470.12462187784695,471.23550000513114,1 46083U 20055BJ  26185.54486010  .00024655  00000+0  80312-3 0  9991,2 46083  53.1575 277.5110 0000811  64.3273 295.7812 15.31720106327133
STARLINK-1622,46128,53.0092,0.0007966,15.99963979,269.2190443352374,279.8180551570922,1 46128U 20057M   26185.66670139  .00730386  25464-3  13972-2 0  9990,2 46128  53.0092 359.0837 0007966 274.7062 104.0256 15.99963979  6059
STARLINK-1623,46129,53.0373,0.0003048,15.82745033,320.63930302905646,324.72412211624123,1 46129U 20057N   26185.66670139  .00310606  00000+0  13945-2 0  9995,2 46129  53.0373  39.9161 0003048 194.9809 225.4973 15.82745033  6027
STARLINK-1596,46141,53.0331,0.0003125,15.64792062,371.72686048082323,375.946844138517,1 46141U 20057AA  26185.57408958  .00126588  00000+0  12614-2 0  9993,2 46141  53.0331  26.0325 0003125 155.6807 204.4355 15.64792062325458
STARLINK-1597,46142,53.0374,0.0003963,15.819226,322.3475361974606,327.66044574690477,1 46142U 20057AB  26185.66670139  .00356092  00000+0  16518-2 0  9998,2 46142  53.0374  79.7620 0003963 165.2607 338.8154 15.81922600  6024
STARLINK-1608,46146,53.1568,0.0005368,15.38579683,446.6429636896564,453.9739827497051,1 46146U 20057AF  26185.11766424  .00078703  00000+0  20243-2 0  9995,2 46146  53.1568 125.8595 0005368  67.7148 292.4425 15.38579683324047
STARLINK-1545,46156,53.0298,0.0009316,16.05560384,252.8671777011832,265.2335852303295,1 46156U 20057AR  26185.12130481  .01141861  74160-3  15730-2 0  9999,2 46156  53.0298  36.9519 0009316 262.6110  97.3863 16.05560384326501
STARLINK-1595,46159,53.0377,0.0004291,15.791203,330.0521708496799,335.8116101715159,1 46159U 20057AU  26185.66670139  .00303519  00000+0  16109-2 0  9998,2 46159  53.0377  82.9901 0004291 146.0349 307.0122 15.79120300  5899
STARLINK-1598,46160,53.042,0.0001748,15.77915691,335.1733307769573,337.520714391253,1 46160U 20057AV  26185.66670139  .00238916  00000+0  13499-2 0  9997,2 46160  53.0420  69.2887 0001748 243.4452 291.5650 15.77915691  6024
STARLINK-1626,46167,53.0369,0.0003891,15.82647424,320.349827106691,325.5646186309277,1 46167U 20057BC  26185.66670139  .00378826  00000+0  16942-2 0  9995,2 46167  53.0369  77.9736 0003891 211.1269  35.5544 15.82647424  5907
STARLINK-1633,46171,53.0285,0.000829,15.95585513,281.15827731461286,292.20854956009134,1 46171U 20057BG  26185.66670139  .00578401  14973-3  14118-2 0  9992,2 46171  53.0285  37.0530 0008290 260.6450 167.6871 15.95585513  5923
STARLINK-1635,46172,53.0243,0.0013887,16.16348261,220.30935943693748,238.66136979241855,1 46172U 20057BH  26185.05930495  .01499778  18527-2  10128-2 0  9995,2 46172  53.0243  35.9873 0013887 267.1274  92.8173 16.16348261326515
STARLINK-1640,46173,53.0369,0.0003759,15.79296022,329.91156828024396,334.95657561213375,1 46173U 20057BJ  26185.66670139  .00332145  00000+0  17429-2 0  9997,2 46173  53.0369  84.0022 0003759 144.6975 111.8496 15.79296022  5946
STARLINK-1641,46174,53.045,0.0002316,15.67143395,365.51922104494497,368.64360621413744,1 46174U 20057BK  26185.42254456  .00196229  00000+0  17619-2 0  9994,2 46174  53.0450  79.0139 0002316 206.6431 153.4465 15.67143395324690
STARLINK-1695,46329,53.0382,0.0003053,15.82653791,320.89341198848615,324.98508914708236,1 46329U 20062E   26185.66670139  .00383486  00000+0  17137-2 0  9996,2 46329  53.0382 120.8692 0003053 191.0391 274.3473 15.82653791  6003
STARLINK-1719,46331,53.0291,0.0003727,15.92573739,292.5963804570265,297.57059901007324,1 46331U 20062G   26185.66670139  .00661275  18794-3  18999-2 0  9994,2 46331  53.0291 118.8313 0003727 171.0887 107.0565 15.92573739  6028
